ONEWEB-0080             
1 45426U 20020C   25273.47910578 -.00000462  00000+0 -13391-2 0  9997
2 45426  87.8797  72.7910 0001371 102.2415 257.8866 13.11417556268666
ONEWEB-0090             
1 45427U 20020D   25273.72750627  .00000351  00000+0  95533-3 0  9997
2 45427  87.8801  72.7421 0001657  93.5918 266.5400 13.11418535268666
ONEWEB-0061             
1 45428U 20020E   25273.83589211  .00000300  00000+0  81173-3 0  9998
2 45428  87.8790  72.7003 0001586  93.0174 267.1135 13.11415781268639
ONEWEB-0081             
1 45429U 20020F   25273.51218289  .00000565  00000+0  15572-2 0  9990
2 45429  87.8793  72.7839 0001481  84.7988 275.3309 13.11416245268702
ONEWEB-0069             
1 45430U 20020G   25273.73005084  .00000376  00000+0  10244-2 0  9994
2 45430  87.8802  72.7360 0001619  88.0415 272.0898 13.11417477268669
ONEWEB-0031             
1 45431U 20020H   25273.47316338 -.00000455  00000+0 -13189-2 0  9994
2 45431  87.8791  72.8149 0001675  99.5272 260.6045 13.11415030268618
ONEWEB-0027             
1 45432U 20020J   25273.83196551 -.00000200  00000+0 -54907-3 0  9990
2 45432  87.9077  57.4174 0001991 103.1130 257.0224 13.17648719272207
ONEWEB-0064             
1 45433U 20020K   25273.47147549 -.00000573  00000+0 -16514-2 0  9998
2 45433  87.8790  72.8060 0001748  97.8112 262.3215 13.11415511268641
